[{"CCSDS_OMM_VERS":"3.0","COMMENT":"GENERATED VIA SPACE-TRACK.ORG API","CREATION_DATE":"2026-05-16T17:43:08","ORIGINATOR":"18 SPCS","OBJECT_NAME":"OAO 2","OBJECT_ID":"1968-110A","CENTER_NAME":"EARTH","REF_FRAME":"TEME","TIME_SYSTEM":"UTC","MEAN_ELEMENT_THEORY":"SGP4","EPOCH":"2026-05-16T14:19:43.554432","MEAN_MOTION":"14.47339556","ECCENTRICITY":"0.00054167","INCLINATION":"34.9933","RA_OF_ASC_NODE":"246.0676","ARG_OF_PERICENTER":"15.1773","MEAN_ANOMALY":"344.9080","EPHEMERIS_TYPE":"0","CLASSIFICATION_TYPE":"U","NORAD_CAT_ID":"3597","ELEMENT_SET_NO":"999","REV_AT_EPOCH":"2894","BSTAR":"0.00003578957200","MEAN_MOTION_DOT":"0.00000114","MEAN_MOTION_DDOT":"0.0000000000000","SEMIMAJOR_AXIS":"7112.488","PERIOD":"99.493","APOAPSIS":"738.206","PERIAPSIS":"730.500","OBJECT_TYPE":"PAYLOAD","RCS_SIZE":"LARGE","COUNTRY_CODE":"US","LAUNCH_DATE":"1968-12-07","SITE":"AFETR","DECAY_DATE":null,"FILE":"5196581","GP_ID":"323457450","TLE_LINE0":"0 OAO 2","TLE_LINE1":"1 03597U 68110A   26136.59703188  .00000114  00000-0  35790-4 0  9993","TLE_LINE2":"2 03597  34.9933 246.0676 0005417  15.1773 344.9080 14.47339556 28947"},{"CCSDS_OMM_VERS":"3.0","COMMENT":"GENERATED VIA SPACE-TRACK.ORG API","CREATION_DATE":"2026-05-16T19:46:19","ORIGINATOR":"18 SPCS","OBJECT_NAME":"ATLAS CENTAUR R\/B","OBJECT_ID":"1968-110B","CENTER_NAME":"EARTH","REF_FRAME":"TEME","TIME_SYSTEM":"UTC","MEAN_ELEMENT_THEORY":"SGP4","EPOCH":"2026-05-16T12:56:11.944032","MEAN_MOTION":"14.57639664","ECCENTRICITY":"0.00462430","INCLINATION":"34.9927","RA_OF_ASC_NODE":"289.3731","ARG_OF_PERICENTER":"29.5276","MEAN_ANOMALY":"330.8017","EPHEMERIS_TYPE":"0","CLASSIFICATION_TYPE":"U","NORAD_CAT_ID":"3598","ELEMENT_SET_NO":"999","REV_AT_EPOCH":"1995","BSTAR":"0.00006102400000","MEAN_MOTION_DOT":"0.00000264","MEAN_MOTION_DDOT":"0.0000000000000","SEMIMAJOR_AXIS":"7078.943","PERIOD":"98.790","APOAPSIS":"733.543","PERIAPSIS":"668.072","OBJECT_TYPE":"ROCKET BODY","RCS_SIZE":"LARGE","COUNTRY_CODE":"US","LAUNCH_DATE":"1968-12-07","SITE":"AFETR","DECAY_DATE":null,"FILE":"5196709","GP_ID":"323494030","TLE_LINE0":"0 ATLAS CENTAUR R\/B","TLE_LINE1":"1  3598U 68110B   26136.53902713  .00000264  00000-0  61024-4 0  9998","TLE_LINE2":"2  3598  34.9927 289.3731 0046243  29.5276 330.8017 14.57639664 19951"},{"CCSDS_OMM_VERS":"3.0","COMMENT":"GENERATED VIA SPACE-TRACK.ORG API","CREATION_DATE":"2026-05-16T19:46:19","ORIGINATOR":"18 SPCS","OBJECT_NAME":"OPS 7684","OBJECT_ID":"1968-112B","CENTER_NAME":"EARTH","REF_FRAME":"TEME","TIME_SYSTEM":"UTC","MEAN_ELEMENT_THEORY":"SGP4","EPOCH":"2026-05-16T11:32:56.662368","MEAN_MOTION":"12.60745158","ECCENTRICITY":"0.00555460","INCLINATION":"80.3587","RA_OF_ASC_NODE":"141.2240","ARG_OF_PERICENTER":"191.2982","MEAN_ANOMALY":"335.0303","EPHEMERIS_TYPE":"0","CLASSIFICATION_TYPE":"U","NORAD_CAT_ID":"3605","ELEMENT_SET_NO":"999","REV_AT_EPOCH":"64000","BSTAR":"0.00017524000000","MEAN_MOTION_DOT":"0.00000037","MEAN_MOTION_DDOT":"0.0000000000000","SEMIMAJOR_AXIS":"7798.007","PERIOD":"114.218","APOAPSIS":"1463.187","PERIAPSIS":"1376.557","OBJECT_TYPE":"PAYLOAD","RCS_SIZE":"MEDIUM","COUNTRY_CODE":"US","LAUNCH_DATE":"1968-12-12","SITE":"AFWTR","DECAY_DATE":null,"FILE":"5196709","GP_ID":"323493531","TLE_LINE0":"0 OPS 7684","TLE_LINE1":"1  3605U 68112B   26136.48121137  .00000037  00000-0  17524-3 0  9999","TLE_LINE2":"2  3605  80.3587 141.2240 0055546 191.2982 335.0303 12.60745158640004"},{"CCSDS_OMM_VERS":"3.0","COMMENT":"GENERATED VIA SPACE-TRACK.ORG API","CREATION_DATE":"2026-05-16T19:46:19","ORIGINATOR":"18 SPCS","OBJECT_NAME":"COSMOS 249 DEB","OBJECT_ID":"1968-091Y","CENTER_NAME":"EARTH","REF_FRAME":"TEME","TIME_SYSTEM":"UTC","MEAN_ELEMENT_THEORY":"SGP4","EPOCH":"2026-05-16T12:34:41.121120","MEAN_MOTION":"13.06071340","ECCENTRICITY":"0.07281370","INCLINATION":"62.2556","RA_OF_ASC_NODE":"185.9915","ARG_OF_PERICENTER":"277.0028","MEAN_ANOMALY":"74.8759","EPHEMERIS_TYPE":"0","CLASSIFICATION_TYPE":"U","NORAD_CAT_ID":"3606","ELEMENT_SET_NO":"999","REV_AT_EPOCH":"68053","BSTAR":"0.00076254000000","MEAN_MOTION_DOT":"0.00000837","MEAN_MOTION_DDOT":"0.0000000000000","SEMIMAJOR_AXIS":"7616.531","PERIOD":"110.254","APOAPSIS":"1792.984","PERIAPSIS":"683.809","OBJECT_TYPE":"DEBRIS","RCS_SIZE":"SMALL","COUNTRY_CODE":"CIS","LAUNCH_DATE":"1968-10-20","SITE":"TTMTR","DECAY_DATE":null,"FILE":"5196709","GP_ID":"323494031","TLE_LINE0":"0 COSMOS 249 DEB","TLE_LINE1":"1  3606U 68091Y   26136.52408705  .00000837  00000-0  76254-3 0  9993","TLE_LINE2":"2  3606  62.2556 185.9915 0728137 277.0028  74.8759 13.06071340680532"},{"CCSDS_OMM_VERS":"3.0","COMMENT":"GENERATED VIA SPACE-TRACK.ORG API","CREATION_DATE":"2026-05-16T17:43:08","ORIGINATOR":"18 SPCS","OBJECT_NAME":"COSMOS 249 DEB","OBJECT_ID":"1968-091AB","CENTER_NAME":"EARTH","REF_FRAME":"TEME","TIME_SYSTEM":"UTC","MEAN_ELEMENT_THEORY":"SGP4","EPOCH":"2026-05-16T13:41:35.927808","MEAN_MOTION":"13.66082408","ECCENTRICITY":"0.07375187","INCLINATION":"62.2722","RA_OF_ASC_NODE":"241.1149","ARG_OF_PERICENTER":"127.3220","MEAN_ANOMALY":"239.7379","EPHEMERIS_TYPE":"0","CLASSIFICATION_TYPE":"U","NORAD_CAT_ID":"3609","ELEMENT_SET_NO":"999","REV_AT_EPOCH":"70057","BSTAR":"0.00039568635000","MEAN_MOTION_DOT":"0.00002189","MEAN_MOTION_DDOT":"0.0000000000000","SEMIMAJOR_AXIS":"7391.806","PERIOD":"105.411","APOAPSIS":"1558.831","PERIAPSIS":"468.512","OBJECT_TYPE":"DEBRIS","RCS_SIZE":"SMALL","COUNTRY_CODE":"CIS","LAUNCH_DATE":"1968-10-20","SITE":"TTMTR","DECAY_DATE":null,"FILE":"5196581","GP_ID":"323457452","TLE_LINE0":"0 COSMOS 249 DEB","TLE_LINE1":"1 03609U 68091AB  26136.57055472  .00002189  00000-0  39569-3 0  9990","TLE_LINE2":"2 03609  62.2722 241.1149 0737519 127.3220 239.7379 13.66082408700579"},{"CCSDS_OMM_VERS":"3.0","COMMENT":"GENERATED VIA SPACE-TRACK.ORG API","CREATION_DATE":"2026-05-16T17:43:08","ORIGINATOR":"18 SPCS","OBJECT_NAME":"ESSA 8 (TOS-F)","OBJECT_ID":"1968-114A","CENTER_NAME":"EARTH","REF_FRAME":"TEME","TIME_SYSTEM":"UTC","MEAN_ELEMENT_THEORY":"SGP4","EPOCH":"2026-05-16T14:30:40.356864","MEAN_MOTION":"12.56249232","ECCENTRICITY":"0.00322067","INCLINATION":"101.6991","RA_OF_ASC_NODE":"86.2535","ARG_OF_PERICENTER":"24.4867","MEAN_ANOMALY":"335.7729","EPHEMERIS_TYPE":"0","CLASSIFICATION_TYPE":"U","NORAD_CAT_ID":"3615","ELEMENT_SET_NO":"999","REV_AT_EPOCH":"63259","BSTAR":"-0.00005953258300","MEAN_MOTION_DOT":"-0.00000055","MEAN_MOTION_DDOT":"0.0000000000000","SEMIMAJOR_AXIS":"7816.601","PERIOD":"114.627","APOAPSIS":"1463.641","PERIAPSIS":"1413.292","OBJECT_TYPE":"PAYLOAD","RCS_SIZE":"MEDIUM","COUNTRY_CODE":"US","LAUNCH_DATE":"1968-12-15","SITE":"AFWTR","DECAY_DATE":null,"FILE":"5196581","GP_ID":"323457953","TLE_LINE0":"0 ESSA 8 (TOS-F)","TLE_LINE1":"1 03615U 68114A   26136.60463376 -.00000055  00000-0 -59533-4 0  9999","TLE_LINE2":"2 03615 101.6991  86.2535 0032207  24.4867 335.7729 12.56249232632595"},{"CCSDS_OMM_VERS":"3.0","COMMENT":"GENERATED VIA SPACE-TRACK.ORG API","CREATION_DATE":"2026-05-16T17:43:08","ORIGINATOR":"18 SPCS","OBJECT_NAME":"DELTA 1 R\/B","OBJECT_ID":"1968-114B","CENTER_NAME":"EARTH","REF_FRAME":"TEME","TIME_SYSTEM":"UTC","MEAN_ELEMENT_THEORY":"SGP4","EPOCH":"2026-05-16T07:46:42.735072","MEAN_MOTION":"12.51401904","ECCENTRICITY":"0.00138944","INCLINATION":"101.6842","RA_OF_ASC_NODE":"83.2229","ARG_OF_PERICENTER":"85.7823","MEAN_ANOMALY":"36.4747","EPHEMERIS_TYPE":"0","CLASSIFICATION_TYPE":"U","NORAD_CAT_ID":"3616","ELEMENT_SET_NO":"999","REV_AT_EPOCH":"62461","BSTAR":"-0.00003253921900","MEAN_MOTION_DOT":"-0.00000049","MEAN_MOTION_DDOT":"0.0000000000000","SEMIMAJOR_AXIS":"7836.774","PERIOD":"115.071","APOAPSIS":"1469.527","PERIAPSIS":"1447.750","OBJECT_TYPE":"ROCKET BODY","RCS_SIZE":"LARGE","COUNTRY_CODE":"US","LAUNCH_DATE":"1968-12-15","SITE":"AFWTR","DECAY_DATE":null,"FILE":"5196581","GP_ID":"323457453","TLE_LINE0":"0 DELTA 1 R\/B","TLE_LINE1":"1 03616U 68114B   26136.32410573 -.00000049  00000-0 -32539-4 0  9990","TLE_LINE2":"2 03616 101.6842  83.2229 0013894  85.7823  36.4747 12.51401904624611"},{"CCSDS_OMM_VERS":"3.0","COMMENT":"GENERATED VIA SPACE-TRACK.ORG API","CREATION_DATE":"2026-05-16T10:38:26","ORIGINATOR":"18 SPCS","OBJECT_NAME":"OPS 7684 DEB","OBJECT_ID":"1968-112C","CENTER_NAME":"EARTH","REF_FRAME":"TEME","TIME_SYSTEM":"UTC","MEAN_ELEMENT_THEORY":"SGP4","EPOCH":"2026-05-15T07:43:48.296064","MEAN_MOTION":"12.63536041","ECCENTRICITY":"0.00436366","INCLINATION":"80.1794","RA_OF_ASC_NODE":"76.8512","ARG_OF_PERICENTER":"237.7488","MEAN_ANOMALY":"278.5575","EPHEMERIS_TYPE":"0","CLASSIFICATION_TYPE":"U","NORAD_CAT_ID":"3617","ELEMENT_SET_NO":"999","REV_AT_EPOCH":"64686","BSTAR":"0.00016797736000","MEAN_MOTION_DOT":"0.00000036","MEAN_MOTION_DDOT":"0.0000000000000","SEMIMAJOR_AXIS":"7786.520","PERIOD":"113.966","APOAPSIS":"1442.363","PERIAPSIS":"1374.408","OBJECT_TYPE":"DEBRIS","RCS_SIZE":"SMALL","COUNTRY_CODE":"US","LAUNCH_DATE":"1968-12-12","SITE":"AFWTR","DECAY_DATE":null,"FILE":"5196540","GP_ID":"323423754","TLE_LINE0":"0 OPS 7684 DEB","TLE_LINE1":"1 03617U 68112C   26135.32208676  .00000036  00000-0  16798-3 0  9999","TLE_LINE2":"2 03617  80.1794  76.8512 0043637 237.7488 278.5575 12.63536041646869"}]